{
    "links": {
        "self": "http://www.neowsapp.com/rest/v1/neo/3785926?api_key=iIulBulltgU6a56xZRHN4H3l9WmuAYTsLGpBGhQ2"
    },
    "id": "3785926",
    "neo_reference_id": "3785926",
    "name": "(2017 TW5)",
    "designation": "2017 TW5",
    "nasa_jpl_url": "http://ssd.jpl.nasa.gov/sbdb.cgi?sstr=3785926",
    "absolute_magnitude_h": 27.2,
    "estimated_diameter": {
        "kilometers": {
            "estimated_diameter_min": 0.0096506147,
            "estimated_diameter_max": 0.0215794305
        },
        "meters": {
            "estimated_diameter_min": 9.6506146958,
            "estimated_diameter_max": 21.5794304844
        },
        "miles": {
            "estimated_diameter_min": 0.0059966121,
            "estimated_diameter_max": 0.0134088323
        },
        "feet": {
            "estimated_diameter_min": 31.6621227185,
            "estimated_diameter_max": 70.7986587106
        }
    },
    "is_potentially_hazardous_asteroid": false,
    "close_approach_data": [
        {
            "close_approach_date": "1972-10-20",
            "close_approach_date_full": "1972-Oct-20 15:06",
            "epoch_date_close_approach": 88441560000,
            "relative_velocity": {
                "kilometers_per_second": "14.2298586744",
                "kilometers_per_hour": "51227.491227899",
                "miles_per_hour": "31830.770868802"
            },
            "miss_distance": {
                "astronomical": "0.0384285245",
                "lunar": "14.9486960305",
                "kilometers": "5748825.412442815",
                "miles": "3572154.468288247"
            },
            "orbiting_body": "Earth"
        },
        {
            "close_approach_date": "2017-10-17",
            "close_approach_date_full": "2017-Oct-17 19:37",
            "epoch_date_close_approach": 1508269020000,
            "relative_velocity": {
                "kilometers_per_second": "15.5126813892",
                "kilometers_per_hour": "55845.6530010419",
                "miles_per_hour": "34700.3169994529"
            },
            "miss_distance": {
                "astronomical": "0.0079097916",
                "lunar": "3.0769089324",
                "kilometers": "1183287.975503892",
                "miles": "735261.0534700296"
            },
            "orbiting_body": "Earth"
        },
        {
            "close_approach_date": "2017-10-18",
            "close_approach_date_full": "2017-Oct-18 01:10",
            "epoch_date_close_approach": 1508289000000,
            "relative_velocity": {
                "kilometers_per_second": "15.3251752383",
                "kilometers_per_hour": "55170.6308577313",
                "miles_per_hour": "34280.8844904609"
            },
            "miss_distance": {
                "astronomical": "0.0074889011",
                "lunar": "2.9131825279",
                "kilometers": "1120323.653200657",
                "miles": "696136.8378047866"
            },
            "orbiting_body": "Moon"
        }
    ],
    "orbital_data": {
        "orbit_id": "3",
        "orbit_determination_date": "2018-01-12 06:22:30",
        "first_observation_date": "2017-10-15",
        "last_observation_date": "2017-10-17",
        "data_arc_in_days": 2,
        "observations_used": 28,
        "orbit_uncertainty": "8",
        "minimum_orbit_intersection": ".00132613",
        "jupiter_tisserand_invariant": "3.681",
        "epoch_osculation": "2458042.5",
        "eccentricity": ".6080814315497634",
        "semi_major_axis": "1.914809680728388",
        "inclination": ".505905331846614",
        "ascending_node_longitude": "33.84112448441253",
        "orbital_period": "967.8027428212409",
        "perihelion_distance": ".7504494689257244",
        "perihelion_argument": "60.83634908651466",
        "aphelion_distance": "3.079169892531051",
        "perihelion_time": "2458088.871318909593",
        "mean_anomaly": "342.7509531965267",
        "mean_motion": ".3719766271281318",
        "equinox": "J2000",
        "orbit_class": {
            "orbit_class_type": "APO",
            "orbit_class_description": "Near-Earth asteroid orbits which cross the Earth’s orbit similar to that of 1862 Apollo",
            "orbit_class_range": "a (semi-major axis) > 1.0 AU; q (perihelion) < 1.017 AU"
        }
    },
    "is_sentry_object": false
}